{
"type": "FeatureCollection",
"name": "rios",
"crs": { "type": "name", "properties": { "name": "urn:ogc:def:crs:OGC:1.3:CRS84" } },
"features": [
{ "type": "Feature", "properties": { "ObjectID": 1, "NAME": "Parana", "SYSTEM": "Parana", "MILES": 1616.20622, "KILOMETERS": 2601.03698, "Shape_Leng": 22.413819358000001 }, "geometry": { "type": "MultiLineString", "coordinates": [ [ [ -51.006395363999957, -20.079406454999969 ], [ -51.029723363999949, -20.222497454999939 ], [ -51.131954363999967, -20.292229454999926 ], [ -51.237506363999955, -20.302777454999955 ], [ -51.514661363999949, -20.577313454999967 ], [ -51.574727363999955, -20.591947454999968 ], [ -51.625280363999934, -20.870002454999963 ], [ -51.863897363999968, -21.133612454999934 ], [ -51.851954363999937, -21.308617454999933 ], [ -51.990626363999979, -21.510658454999941 ], [ -52.04973836399995, -21.502783454999928 ], [ -52.091948363999961, -21.555838454999957 ], [ -52.037228363999986, -21.646387454999967 ], [ -52.053338363999956, -21.718891454999948 ], [ -52.14830636399995, -21.781828454999982 ], [ -52.371947363999936, -22.108618454999942 ], [ -52.511123363999957, -22.223890454999946 ], [ -52.73278436399994, -22.336390454999957 ], [ -53.174540363999938, -22.716046454999969 ], [ -53.563898363999954, -22.87778545499998 ], [ -53.635007363999932, -23.002777454999944 ], [ -53.634368363999954, -23.080366454999933 ], [ -53.72851736399997, -23.308273454999949 ], [ -53.768162363999977, -23.333500454999978 ], [ -53.962778363999973, -23.438620454999977 ], [ -54.120566363999956, -23.981392454999934 ], [ -54.24390236399995, -24.05360845499996 ], [ -54.269579363999981, -24.065686454999934 ], [ -54.294311363999952, -24.085414454999977 ], [ -54.325838363999935, -24.117499454999972 ], [ -54.336674363999975, -24.148054454999965 ], [ -54.316676363999932, -24.241672454999957 ], [ -54.302645363999943, -24.257224454999971 ], [ -54.280136363999986, -24.27263245499995 ], [ -54.262991363999959, -24.293260454999938 ], [ -54.249446363999937, -24.353542454999968 ], [ -54.275969363999934, -24.413338454999973 ], [ -54.29361836399994, -24.42889045499993 ], [ -54.312500363999959, -24.450553454999977 ], [ -54.323336363999942, -24.469723454999951 ], [ -54.331391363999956, -24.492781454999943 ], [ -54.334307363999983, -24.518476454999927 ], [ -54.32153636399994, -24.554791454999929 ], [ -54.311807363999947, -24.602779454999961 ], [ -54.315560363999964, -24.627781454999933 ], [ -54.325010363999979, -24.661945454999966 ], [ -54.330554363999966, -24.67944145499996 ], [ -54.396389363999958, -24.804442454999958 ], [ -54.408053363999954, -24.838894454999945 ], [ -54.45362036399996, -25.017229454999949 ], [ -54.458336363999933, -25.066531454999961 ], [ -54.455420363999963, -25.089724454999953 ], [ -54.423542363999957, -25.133131454999955 ], [ -54.42751136399994, -25.153057454999953 ], [ -54.505703363999942, -25.280416454999965 ], [ -54.524441363999983, -25.303204454999957 ], [ -54.549587363999933, -25.332229454999947 ], [ -54.574310363999984, -25.354441454999971 ], [ -54.616457363999984, -25.445701454999949 ], [ -54.598916363999933, -25.51045645499994 ], [ -54.598916363999933, -25.573231454999927 ], [ -54.623333363999961, -25.648606454999936 ], [ -54.611669363999965, -25.781941454999981 ], [ -54.604442363999965, -25.943608454999946 ], [ -54.660350363999953, -25.976251454999954 ], [ -54.660971363999977, -26.157916454999963 ], [ -54.639587363999965, -26.187778454999943 ], [ -54.640973363999933, -26.214310454999975 ], [ -54.667496363999931, -26.238880454999958 ], [ -54.658757363999939, -26.285554454999954 ], [ -54.693191363999972, -26.428051454999945 ], [ -54.842231363999986, -26.657497454999941 ], [ -54.87660236399995, -26.65528345499996 ], [ -54.907778363999967, -26.667784454999946 ], [ -54.928892363999978, -26.688259454999979 ], [ -54.940421363999974, -26.740837454999962 ], [ -54.949313363999977, -26.76833245499995 ], [ -54.963335363999931, -26.783200454999928 ], [ -54.992504363999956, -26.793892454999934 ], [ -55.034444363999967, -26.794999454999981 ], [ -55.055630363999967, -26.803261454999983 ], [ -55.129997363999962, -26.872705454999959 ], [ -55.251119363999976, -26.936110454999948 ], [ -55.271117363999963, -26.937496454999973 ], [ -55.379441363999945, -26.966386454999963 ], [ -55.400834363999934, -26.974027454999941 ], [ -55.41764636399995, -26.986393454999927 ], [ -55.547498363999978, -27.112231454999971 ], [ -55.57333736399994, -27.166663454999934 ], [ -55.581122363999953, -27.215002454999933 ], [ -55.570277363999935, -27.235414454999955 ], [ -55.568477363999932, -27.255835454999954 ], [ -55.584587363999958, -27.316810454999938 ], [ -55.600004363999972, -27.342082454999968 ], [ -55.731674363999957, -27.43667245499995 ], [ -55.757783363999977, -27.441946454999936 ], [ -55.844723363999947, -27.406252454999958 ], [ -55.859024363999936, -27.391528454999957 ], [ -55.86757436399995, -27.35840845499996 ], [ -55.892513363999967, -27.332632454999953 ], [ -55.92320336399996, -27.326530454999954 ], [ -55.965269363999937, -27.331957454999952 ], [ -56.035703363999971, -27.305137454999965 ], [ -56.064449363999984, -27.30277945499995 ], [ -56.098622363999937, -27.30472345499993 ], [ -56.144027363999953, -27.311464454999964 ], [ -56.268128363999949, -27.389377454999931 ], [ -56.271395363999943, -27.424999454999977 ], [ -56.26889336399995, -27.448606454999947 ], [ -56.275004363999983, -27.468334454999933 ], [ -56.345555363999949, -27.570277454999939 ], [ -56.365625363999982, -27.58473145499994 ], [ -56.398052363999966, -27.584443454999928 ], [ -56.418617363999942, -27.574714454999935 ], [ -56.456390363999958, -27.547228454999981 ], [ -56.493893363999973, -27.502363454999966 ], [ -56.504171363999944, -27.475282454999956 ], [ -56.52028136399997, -27.46194445499998 ], [ -56.549999363999973, -27.452503454999942 ], [ -56.57819636399995, -27.448615454999981 ], [ -56.606942363999963, -27.448336454999946 ], [ -56.644445363999978, -27.453889454999967 ], [ -56.673056363999933, -27.461386454999968 ], [ -56.696672363999937, -27.474166454999931 ], [ -56.706275363999964, -27.483436454999946 ], [ -56.731394363999982, -27.505279454999936 ], [ -56.766539363999982, -27.501949454999931 ], [ -56.792648363999945, -27.489727454999979 ], [ -56.813339363999944, -27.470278454999971 ], [ -56.83583936399998, -27.449443454999937 ], [ -56.862497363999978, -27.428203454999959 ], [ -56.880695363999962, -27.419581454999957 ], [ -56.916182363999951, -27.419311454999956 ], [ -56.964728363999939, -27.434170454999958 ], [ -56.998613363999937, -27.450838454999939 ], [ -57.044234363999976, -27.476812454999958 ], [ -57.077777363999985, -27.492229454999972 ], [ -57.121670363999954, -27.490285454999935 ], [ -57.164456363999932, -27.484174454999959 ], [ -57.207224363999956, -27.471943454999973 ], [ -57.23736536399997, -27.459577454999931 ], [ -57.269171363999988, -27.442216454999937 ], [ -57.296954363999987, -27.43111945499993 ], [ -57.323621363999962, -27.425557454999932 ], [ -57.344924363999951, -27.426115454999945 ], [ -57.413063363999981, -27.417781454999954 ], [ -57.61695836399997, -27.37166545499997 ], [ -57.644867363999936, -27.360703454999964 ], [ -57.682496363999974, -27.334999454999945 ], [ -57.70389836399994, -27.319447454999931 ], [ -57.729593363999982, -27.307081454999945 ], [ -57.791387363999945, -27.292231454999978 ], [ -57.935837363999951, -27.275554454999963 ], [ -58.011122363999959, -27.270280454999977 ], [ -58.156391363999944, -27.268894454999952 ], [ -58.289726363999932, -27.27388945499996 ], [ -58.479725363999933, -27.286120454999946 ], [ -58.505564363999952, -27.288613454999961 ], [ -58.529162363999944, -27.293338454999969 ], [ -58.560977363999939, -27.30110545499997 ], [ -58.604618363999975, -27.31691845499995 ], [ -58.641401363999933, -27.339724454999953 ], [ -58.669445363999955, -27.354997454999932 ], [ -58.722779363999962, -27.373609454999951 ], [ -58.745837363999954, -27.386389454999971 ], [ -58.782782363999956, -27.415558454999939 ], [ -58.84972436399994, -27.471394454999938 ], [ -58.855835363999972, -27.479728454999929 ], [ -58.858652363999965, -27.494326454999964 ], [ -58.856672363999962, -27.505000454999958 ], [ -58.851389363999942, -27.526105454999936 ], [ -58.844450363999954, -27.539722454999946 ], [ -58.838051363999966, -27.560278454999946 ], [ -58.835558363999951, -27.577225454999962 ], [ -58.818062363999957, -27.708058454999957 ], [ -58.817783363999979, -27.732781454999952 ], [ -58.824722363999967, -27.831394454999952 ], [ -58.82722436399996, -27.85805245499995 ], [ -58.856915363999974, -27.999361454999928 ], [ -58.861118363999935, -28.034443454999973 ], [ -58.886390363999965, -28.091386454999963 ], [ -58.89223136399994, -28.100566454999978 ], [ -58.899449363999963, -28.108054454999944 ], [ -58.912778363999962, -28.116388454999935 ], [ -58.939175363999937, -28.127224454999975 ], [ -58.959443363999981, -28.128052454999931 ], [ -58.994723363999981, -28.121941454999956 ], [ -59.012507363999987, -28.12583845499995 ], [ -59.031389363999949, -28.135837454999944 ], [ -59.044448363999948, -28.144999454999947 ], [ -59.061395363999964, -28.164718454999957 ], [ -59.067506363999939, -28.173889454999937 ], [ -59.071673363999935, -28.184446454999943 ], [ -59.075012363999974, -28.21167145499993 ], [ -59.073050363999982, -28.260838454999941 ], [ -59.066669363999949, -28.312498454999968 ], [ -59.058614363999936, -28.381393454999966 ], [ -59.058335363999959, -28.424728454999979 ], [ -59.061395363999964, -28.451944454999932 ], [ -59.105279363999955, -28.689724454999975 ], [ -59.184443363999947, -28.993339454999955 ], [ -59.199446363999982, -29.031391454999948 ], [ -59.214728363999939, -29.045836454999971 ], [ -59.369996363999974, -29.186947454999938 ], [ -59.388059363999957, -29.198332454999957 ], [ -59.420279363999953, -29.208340454999984 ], [ -59.461112363999973, -29.218339454999978 ], [ -59.476952363999942, -29.224999454999931 ], [ -59.485556363999933, -29.231110454999964 ], [ -59.492225363999978, -29.239444454999955 ], [ -59.57333336399995, -29.391670454999939 ], [ -59.584448363999968, -29.418337454999971 ], [ -59.585555363999958, -29.443888454999978 ], [ -59.583620363999955, -29.45500345499994 ], [ -59.583620363999955, -29.486116454999944 ], [ -59.587778363999973, -29.570554454999979 ], [ -59.593889363999949, -29.623888454999928 ], [ -59.60750636399996, -29.67917545499995 ], [ -59.630006363999939, -29.749996454999973 ], [ -59.651948363999963, -29.796391454999934 ], [ -59.658338363999974, -29.820556454999974 ], [ -59.661578363999979, -29.854729454999983 ], [ -59.659877363999954, -29.872225454999978 ], [ -59.652074363999986, -29.891674454999929 ], [ -59.643119363999972, -29.904175454999972 ], [ -59.607965363999938, -29.936404454999945 ], [ -59.582018363999964, -29.96862445499994 ], [ -59.576591363999967, -29.977516454999943 ], [ -59.571308363999947, -29.992519454999979 ], [ -59.569643363999944, -29.99751445499993 ], [ -59.57129936399997, -29.999998454999968 ], [ -59.595833363999986, -30.055834454999967 ], [ -59.612780363999946, -30.100564454999983 ], [ -59.631392363999964, -30.195550454999932 ], [ -59.632778363999932, -30.226393454999936 ], [ -59.635280363999982, -30.239173454999957 ], [ -59.644172363999985, -30.253051454999934 ], [ -59.657501363999984, -30.261943454999937 ], [ -59.673620363999987, -30.27555145499997 ], [ -59.67639236399998, -30.280285454999955 ], [ -59.677508363999948, -30.286945454999966 ], [ -59.675834363999968, -30.291949454999951 ], [ -59.652785363999953, -30.338335454999935 ], [ -59.645000363999941, -30.351673454999968 ], [ -59.60750636399996, -30.407221454999956 ], [ -59.588894363999941, -30.419173454999964 ], [ -59.580002363999938, -30.438055454999983 ], [ -59.569454363999967, -30.561391454999978 ], [ -59.568608363999942, -30.573064454999951 ], [ -59.585834363999936, -30.639997454999957 ], [ -59.678894363999973, -30.788605454999981 ], [ -59.748059363999971, -30.885562454999956 ], [ -59.786948363999954, -30.929446454999947 ], [ -59.858066363999967, -31.02417145499993 ], [ -59.929175363999946, -31.12723045499996 ], [ -59.933837363999942, -31.137598454999932 ], [ -59.938904363999939, -31.140280454999981 ], [ -60.037229363999984, -31.232782454999949 ], [ -60.043889363999938, -31.24138645499994 ], [ -60.067505363999942, -31.278340454999977 ], [ -60.081671363999988, -31.310281454999938 ], [ -60.093893363999939, -31.34360845499998 ], [ -60.10778036399995, -31.373893454999973 ], [ -60.149999363999939, -31.431394454999975 ], [ -60.335552363999966, -31.614175454999952 ], [ -60.394169363999936, -31.668337454999971 ], [ -60.420278363999955, -31.687228454999968 ], [ -60.434723363999979, -31.695553454999981 ], [ -60.507227363999959, -31.703338454999937 ], [ -60.529160363999949, -31.703050454999982 ], [ -60.589730363999934, -31.708891454999957 ], [ -60.623894363999966, -31.716388454999958 ], [ -60.637214363999988, -31.723894454999936 ], [ -60.645566363999933, -31.730833454999981 ], [ -60.650840363999976, -31.74055345499994 ], [ -60.652784363999956, -31.752784454999983 ], [ -60.708890363999956, -32.158333454999934 ], [ -60.678605363999964, -32.323339454999939 ], [ -60.723335363999979, -32.417227454999932 ], [ -60.765554363999968, -32.522230454999942 ], [ -60.767228363999948, -32.534443454999973 ], [ -60.755285363999974, -32.588335454999935 ], [ -60.741110363999951, -32.609998454999982 ], [ -60.73250636399996, -32.628889454999978 ], [ -60.708332363999943, -32.71167145499993 ], [ -60.708890363999956, -32.773888454999963 ], [ -60.705839363999985, -32.796388454999942 ], [ -60.696398363999947, -32.833333454999945 ], [ -60.688334363999957, -32.852782454999954 ], [ -60.570011363999981, -33.052510454999947 ], [ -60.535280363999959, -33.110002454999972 ], [ -60.521942363999983, -33.119443454999953 ], [ -60.511115363999977, -33.124726454999973 ], [ -60.448052363999977, -33.14556145499995 ], [ -60.375557363999974, -33.177781454999945 ], [ -60.353894363999984, -33.188050454999939 ], [ -60.341393363999941, -33.198337454999944 ], [ -60.294152363999956, -33.25672945499997 ], [ -59.624723363999976, -33.679450454999937 ], [ -59.521943363999981, -33.651397454999938 ], [ -59.413619363999942, -33.740848454999934 ], [ -59.259458363999954, -33.721390454999948 ], [ -59.249738363999938, -33.786676454999963 ], [ -59.183165363999933, -33.822235454999941 ], [ -59.031668363999984, -33.832225454999957 ], [ -58.655009363999966, -34.050565454999969 ], [ -58.44801836399995, -34.009606454999982 ] ] ] } },
{ "type": "Feature", "properties": { "ObjectID": 19, "NAME": "Paraguay", "SYSTEM": "Parana", "MILES": 1202.97187, "KILOMETERS": 1935.99943, "Shape_Leng": 16.949610267099999 }, "geometry": { "type": "MultiLineString", "coordinates": [ [ [ -53.683067363999953, -16.744726454999977 ], [ -53.672510363999947, -16.821388454999976 ], [ -53.71390136399998, -16.838056454999958 ], [ -54.025283363999961, -16.61611645499994 ], [ -54.521120363999955, -16.483888454999942 ], [ -54.757235363999939, -16.548337454999967 ], [ -54.96556736399998, -16.477228454999931 ], [ -55.558901363999951, -16.773886454999968 ], [ -55.717229363999934, -16.778332454999941 ], [ -55.897508363999975, -16.705837454999937 ], [ -56.006120363999969, -16.700554454999974 ], [ -56.183060363999971, -16.906105454999931 ], [ -56.583578363999948, -17.075818454999933 ], [ -56.744354363999946, -17.31330145499993 ], [ -57.083069363999982, -17.763616454999976 ], [ -57.426671363999958, -17.86778245499994 ], [ -57.470249363999983, -17.942437454999947 ], [ -57.470834363999984, -18.115282454999942 ], [ -57.388061363999952, -18.187498454999968 ], [ -57.36305936399998, -18.46305145499997 ], [ -57.462770363999937, -18.519175454999981 ], [ -57.553067363999958, -18.681121454999982 ], [ -57.526958363999938, -18.708337454999935 ], [ -57.600290363999932, -18.783622454999943 ], [ -57.574181363999969, -18.829441454999937 ], [ -57.690560363999964, -18.878338454999948 ], [ -57.692225363999967, -18.955837454999937 ], [ -57.549458363999975, -19.027783454999962 ], [ -57.38555936399996, -19.051948454999945 ], [ -57.303236363999986, -19.225477454999975 ], [ -57.338156363999985, -19.405207454999982 ], [ -57.367910363999954, -19.427896454999939 ], [ -57.432512363999933, -19.512784454999974 ], [ -57.386126363999949, -19.543618454999944 ], [ -57.47888936399994, -19.682227454999975 ], [ -57.648062363999941, -19.73805445499994 ], [ -57.628892363999967, -19.774729454999942 ], [ -57.893042363999939, -20.023876454999936 ], [ -57.899153363999972, -20.02718845499993 ], [ -57.900836363999986, -20.029024454999956 ], [ -58.109726363999982, -20.149174454999979 ], [ -58.158893363999937, -20.168056454999942 ], [ -58.155833363999932, -20.228617454999949 ], [ -58.136942363999935, -20.27889145499995 ], [ -58.097225363999939, -20.34138745499996 ], [ -58.058894363999968, -20.401111454999977 ], [ -58.008827363999956, -20.513476454999932 ], [ -57.995975363999946, -20.61805645499993 ], [ -57.967742363999946, -20.710135454999943 ], [ -57.93590936399994, -20.671462454999983 ], [ -57.908891363999942, -20.676394454999979 ], [ -57.859580363999953, -20.734723454999937 ], [ -57.85667336399996, -20.83861045499998 ], [ -57.814589363999971, -20.978758454999934 ], [ -57.852641363999965, -21.341665454999941 ], [ -57.879173363999939, -21.38028445499998 ], [ -57.915551363999953, -21.429172454999957 ], [ -57.932498363999969, -21.46167145499993 ], [ -57.954305363999936, -21.513889454999969 ], [ -57.937781363999932, -21.636523454999974 ], [ -57.926387363999936, -21.656665454999938 ], [ -57.935675363999962, -21.771946454999977 ], [ -57.963332363999939, -21.972223454999948 ], [ -57.984023363999938, -22.025701454999933 ], [ -57.987227363999978, -22.060837454999955 ], [ -57.985112363999974, -22.091824454999937 ], [ -57.964727363999941, -22.266946454999982 ], [ -57.821951363999972, -22.378339454999946 ], [ -57.85610636399997, -22.415284454999949 ], [ -57.776672363999978, -22.639447454999981 ], [ -57.923336363999965, -22.678894454999977 ], [ -57.942785363999974, -22.720285454999953 ], [ -57.809432363999974, -22.820563454999956 ], [ -57.789173363999964, -22.876390454999978 ], [ -57.823625363999952, -22.912777454999969 ], [ -57.769175363999977, -22.96361845499996 ], [ -57.779480363999937, -23.008240454999964 ], [ -57.485837363999963, -23.271121454999957 ], [ -57.505574363999983, -23.338891454999953 ], [ -57.444104363999941, -23.472928454999931 ], [ -57.458342363999975, -23.536117454999953 ], [ -57.416951363999942, -23.634442454999942 ], [ -57.283337363999976, -23.723056454999949 ], [ -57.288341363999962, -23.858614454999952 ], [ -57.344168363999984, -23.916664454999932 ], [ -57.226952363999942, -24.040837454999973 ], [ -57.236951363999935, -24.096673454999973 ], [ -57.170288363999987, -24.103621454999939 ], [ -57.198053363999975, -24.18194845499994 ], [ -57.111950363999938, -24.27333445499994 ], [ -57.067508363999934, -24.510565454999949 ], [ -57.12703436399994, -24.641785454999933 ], [ -57.087785363999956, -24.679729454999972 ], [ -57.125567363999949, -24.763618454999971 ], [ -57.172511363999945, -24.759172454999941 ], [ -57.216665363999937, -24.927778454999952 ], [ -57.195551363999982, -24.983335454999974 ], [ -57.27224036399997, -24.981949454999949 ], [ -57.420848363999937, -25.11416845499997 ], [ -57.517229363999945, -25.11055945499993 ], [ -57.566117363999979, -25.223338454999976 ], [ -57.672668363999946, -25.294303454999977 ], [ -57.66861836399994, -25.306120454999927 ], [ -57.632078363999938, -25.386391454999966 ], [ -57.58820336399998, -25.415416454999956 ], [ -57.556325363999974, -25.440004454999951 ], [ -57.55389536399997, -25.468336454999928 ], [ -57.57666536399995, -25.549444454999957 ], [ -57.748889363999979, -25.735132454999928 ], [ -57.792917363999948, -25.766668454999945 ], [ -57.810980363999931, -25.773139454999978 ], [ -57.805553363999934, -25.833052454999972 ], [ -57.853892363999933, -25.904449454999963 ], [ -57.900773363999974, -25.955074454999931 ], [ -57.890909363999981, -25.973893454999939 ], [ -57.860075363999954, -25.997914454999943 ], [ -58.002914363999935, -26.104159454999945 ], [ -58.048337363999963, -26.11916245499998 ], [ -58.144727363999948, -26.206948454999974 ], [ -58.131389363999972, -26.257231454999953 ], [ -58.161944363999964, -26.300557454999932 ], [ -58.20993236399994, -26.420347454999956 ], [ -58.217231363999986, -26.541388454999947 ], [ -58.182914363999942, -26.571106454999949 ], [ -58.168613363999953, -26.599996454999939 ], [ -58.181672363999951, -26.656111454999973 ], [ -58.316672363999942, -26.872777454999948 ], [ -58.352762363999943, -26.885386454999946 ], [ -58.394441363999931, -26.908057454999948 ], [ -58.471166363999941, -26.98726645499994 ], [ -58.578608363999933, -27.122500454999965 ], [ -58.605833363999977, -27.125002454999958 ], [ -58.628063363999956, -27.131113454999934 ], [ -58.652093363999938, -27.158887454999956 ], [ -58.653515363999986, -27.193042454999954 ], [ -58.614860363999981, -27.227224454999941 ], [ -58.598966363999978, -27.249238454999954 ], [ -58.604618363999975, -27.31691845499995 ] ] ] } },
{ "type": "Feature", "properties": { "ObjectID": 20, "NAME": "Grande", "SYSTEM": "Parana", "MILES": 711.5168, "KILOMETERS": 1145.07759, "Shape_Leng": 10.141212668 }, "geometry": { "type": "MultiLineString", "coordinates": [ [ [ -51.006395363999957, -20.079406454999969 ], [ -50.928347363999933, -20.010835454999949 ], [ -50.665277363999962, -19.919728454999927 ], [ -50.577788363999957, -19.819729454999958 ], [ -50.476952363999942, -19.781119454999953 ], [ -50.341673363999973, -19.875835454999958 ], [ -50.025278363999973, -19.925281454999947 ], [ -49.533338363999974, -19.90528345499996 ], [ -49.418903363999959, -19.988056454999935 ], [ -49.255292363999956, -19.976113454999961 ], [ -49.305566363999958, -20.092501454999933 ], [ -49.213064363999933, -20.301949454999942 ], [ -49.130840363999937, -20.285560454999938 ], [ -49.046951363999938, -20.15028145499997 ], [ -48.998621363999973, -20.159731454999928 ], [ -48.968894363999937, -20.406943454999976 ], [ -48.902780363999966, -20.438614454999936 ], [ -48.868337363999956, -20.411668454999983 ], [ -48.888614363999977, -20.259172454999941 ], [ -48.826118363999967, -20.153332454999941 ], [ -48.405566363999981, -20.112499454999977 ], [ -48.253898363999951, -20.144728454999949 ], [ -48.214181363999955, -20.12417245499995 ], [ -48.23278436399994, -20.026675454999975 ], [ -48.207791363999945, -20.02361545499997 ], [ -48.157508363999966, -20.112499454999977 ], [ -48.071117363999974, -20.151676454999972 ], [ -47.980838363999965, -20.031391454999948 ], [ -47.918351363999932, -20.11694545499995 ], [ -47.880290363999961, -20.100844454999958 ], [ -47.860292363999974, -19.986661454999933 ], [ -47.692505363999942, -19.981945454999959 ], [ -47.652230363999934, -20.034172454999975 ], [ -47.606960363999974, -20.037511454999958 ], [ -47.468333363999932, -19.964449454999965 ], [ -47.428346363999935, -19.997227454999972 ], [ -47.43056936399995, -20.049175454999954 ], [ -47.247239363999938, -20.185840454999948 ], [ -47.07316136399993, -20.281915454999933 ], [ -47.06285636399997, -20.280799454999965 ], [ -47.004761363999933, -20.315656454999953 ], [ -46.987337363999984, -20.333080454999958 ], [ -46.981514363999963, -20.344699454999954 ], [ -46.964099363999935, -20.379556454999943 ], [ -46.801442363999968, -20.478313454999977 ], [ -46.766594363999957, -20.489923454999939 ], [ -46.749161363999974, -20.489923454999939 ], [ -46.696880363999981, -20.501542454999935 ], [ -46.603946363999967, -20.565442454999982 ], [ -46.592327363999971, -20.577061454999978 ], [ -46.589771363999944, -20.598733454999945 ], [ -46.592183363999936, -20.623879454999951 ], [ -46.42945436399998, -20.687779454999941 ], [ -46.320869363999975, -20.668447454999978 ], [ -46.252964363999979, -20.659690454999975 ], [ -46.14124736399998, -20.691892454999959 ], [ -46.124453363999976, -20.711692454999934 ], [ -46.03254536399993, -20.688265454999964 ], [ -45.976682363999942, -20.716498454999964 ], [ -45.851744363999956, -20.671444454999971 ], [ -45.838523363999968, -20.663038454999935 ], [ -45.827714363999974, -20.666044454999962 ], [ -45.767657363999945, -20.703277454999977 ], [ -45.753833363999945, -20.714104454999926 ], [ -45.706979363999949, -20.78677945499993 ], [ -45.685361363999959, -20.842633454999941 ], [ -45.601859363999949, -20.921329454999977 ], [ -45.479333363999956, -21.01442545499998 ], [ -45.384419363999939, -21.066094454999927 ], [ -45.249275363999971, -21.126754454999968 ], [ -45.238466363999976, -21.129760454999939 ], [ -45.215039363999949, -21.130966454999964 ], [ -45.209639363999941, -21.129157454999927 ], [ -45.204230363999955, -21.119545454999979 ], [ -45.204230363999955, -21.109933454999975 ], [ -45.218036363999943, -21.068488454999965 ], [ -45.055559363999976, -21.181393454999977 ], [ -45.016130363999935, -21.126115454999933 ], [ -44.947784363999972, -21.103336454999976 ], [ -44.811119363999978, -21.20833945499993 ], [ -44.744735363999951, -21.199168454999949 ], [ -44.618240363999973, -21.317590454999959 ], [ -44.579342363999956, -21.308482454999933 ], [ -44.568956363999973, -21.308482454999933 ], [ -44.560046363999959, -21.314422454999942 ], [ -44.528861363999965, -21.335212454999976 ], [ -44.524406363999958, -21.342637454999931 ], [ -44.522921363999956, -21.351547454999945 ], [ -44.528861363999965, -21.36341845499993 ], [ -44.533316363999973, -21.382723454999962 ], [ -44.530346363999968, -21.388663454999971 ], [ -44.525891363999961, -21.393118454999978 ], [ -44.450156363999952, -21.442123454999944 ], [ -44.385140363999938, -21.471022454999968 ], [ -44.19055136399993, -21.48249745499993 ], [ -44.107229363999977, -21.655837454999983 ], [ -44.059448363999934, -21.655837454999983 ], [ -44.072507363999932, -21.742498454999975 ], [ -44.349446363999959, -22.073887454999976 ], [ -44.583068363999985, -22.237498454999979 ] ] ] } },
{ "type": "Feature", "properties": { "ObjectID": 21, "NAME": "Paranaiba", "SYSTEM": "Parana", "MILES": 507.2946, "KILOMETERS": 816.41315, "Shape_Leng": 7.2326140534499999 }, "geometry": { "type": "MultiLineString", "coordinates": [ [ [ -51.006395363999957, -20.079406454999969 ], [ -51.023621363999951, -19.722502454999983 ], [ -50.960567363999985, -19.469728454999938 ], [ -50.913560363999977, -19.463905454999974 ], [ -50.86612136399998, -19.485550454999952 ], [ -50.841668363999986, -19.46027845499998 ], [ -50.878064363999954, -19.389727454999957 ], [ -50.720834363999984, -19.160002454999983 ], [ -50.544452363999937, -19.109728454999981 ], [ -50.49001136399994, -19.033066454999982 ], [ -50.506958363999956, -18.937504454999953 ], [ -50.331953363999958, -18.693334454999956 ], [ -50.089727363999941, -18.666118454999946 ], [ -50.03628536399998, -18.610903454999971 ], [ -49.726109363999967, -18.609175454999956 ], [ -49.491389363999986, -18.490555454999935 ], [ -49.484738363999952, -18.55500445499996 ], [ -49.378349363999973, -18.643339454999932 ], [ -49.213064363999933, -18.478054454999949 ], [ -48.916631363999954, -18.303913454999929 ], [ -48.819737363999934, -18.371944454999948 ], [ -48.657251363999933, -18.357418454999959 ], [ -48.397790363999945, -18.371386454999936 ], [ -48.26806436399994, -18.326386454999977 ], [ -48.093887363999954, -18.421669454999972 ], [ -48.056681363999985, -18.402778454999975 ], [ -47.944451363999974, -18.488332454999977 ], [ -47.618615363999936, -18.302509454999949 ], [ -47.631674363999934, -18.268894454999952 ], [ -47.278739363999932, -18.063739454999961 ], [ -47.178353363999975, -18.216118454999958 ], [ -47.035280363999959, -18.29722645499993 ], [ -46.978346363999947, -18.256672454999944 ], [ -46.83084536399997, -18.296956454999929 ], [ -46.561682363999978, -18.433063454999967 ], [ -46.508618363999972, -18.67999645499998 ], [ -46.548344363999945, -18.743617454999935 ], [ -46.501121363999971, -18.776386454999965 ], [ -46.560575363999931, -18.853894454999931 ], [ -46.341956363999941, -19.178614454999945 ], [ -46.282511363999959, -19.166392454999936 ], [ -46.23417236399996, -19.093618454999955 ] ] ] } },
{ "type": "Feature", "properties": { "ObjectID": 0, "NAME": "Uruguay", "SYSTEM": null, "MILES": 0.0, "KILOMETERS": 0.0, "Shape_Leng": 0.0 }, "geometry": { "type": "MultiLineString", "coordinates": [ [ [ -58.388726, -33.9909606 ], [ -58.411728700000026, -33.93087659999992 ], [ -58.436447900000019, -33.861342700000023 ], [ -58.4312981, -33.8433801 ], [ -58.448120899999935, -33.727530300000012 ], [ -58.470093499999962, -33.634108799999979 ], [ -58.4687202, -33.59779850000001 ], [ -58.452584100000024, -33.47274 ], [ -58.4412544, -33.364133199999969 ], [ -58.389069399999983, -33.309922399999948 ], [ -58.3949058, -33.245054599999946 ], [ -58.380143, -33.1373137 ], [ -58.356110399999977, -33.109710699999937 ], [ -58.307701899999984, -33.102233399999989 ], [ -58.209854899999925, -33.10194580000001 ], [ -58.178955799999926, -33.103959 ], [ -58.145310199999983, -33.0844004 ], [ -58.148743399999944, -33.062823299999934 ], [ -58.13363720000001, -33.050450099999978 ], [ -58.1298607, -33.03634820000002 ], [ -58.130204, -33.0208048 ], [ -58.134323900000027, -33.011880500000018 ], [ -58.127800699999966, -32.993165299999987 ], [ -58.125054200000022, -32.958891699999981 ], [ -58.116127799999958, -32.915382599999987 ], [ -58.1147545, -32.879637300000013 ], [ -58.1370705, -32.810989 ], [ -58.132950600000015, -32.7881906 ], [ -58.140847, -32.76134449999995 ], [ -58.1477135, -32.72322650000001 ], [ -58.145310199999983, -32.685092199999985 ], [ -58.142906900000014, -32.662839599999927 ], [ -58.15149, -32.637401399999987 ], [ -58.160416400000031, -32.593156299999976 ], [ -58.162133, -32.559307 ], [ -58.1803291, -32.5352866 ], [ -58.197151899999938, -32.490411900000026 ], [ -58.197495300000014, -32.466952299999946 ] ], [ [ -58.251430299999981, -32.546809 ], [ -58.2501413, -32.54622310000002 ], [ -58.25008269999995, -32.545578700000021 ], [ -58.249907, -32.544875600000012 ], [ -58.249086799999986, -32.544817 ], [ -58.247973599999966, -32.544992799999989 ], [ -58.2473877, -32.544875600000012 ], [ -58.246801800000014, -32.544699900000012 ], [ -58.245864399999959, -32.544172600000024 ], [ -58.245321199999978, -32.543944799999963 ], [ -58.24493119999994, -32.543224899999927 ], [ -58.244751299999962, -32.542624900000021 ], [ -58.24427129999998, -32.541965 ], [ -58.243491399999925, -32.541695 ], [ -58.243071399999963, -32.541575 ], [ -58.242171499999984, -32.541485 ], [ -58.241571599999986, -32.541425 ], [ -58.241091599999947, -32.541365 ], [ -58.240371699999969, -32.541425 ], [ -58.2400118, -32.541545 ], [ -58.239561799999933, -32.541515 ], [ -58.239411799999971, -32.540975099999969 ], [ -58.239441799999952, -32.5406451 ], [ -58.239441799999952, -32.540105199999914 ], [ -58.239321799999971, -32.53965519999997 ], [ -58.239141799999913, -32.539145299999973 ], [ -58.2388719, -32.53881530000001 ], [ -58.238301899999954, -32.538635299999953 ], [ -58.237972, -32.53881530000001 ], [ -58.237642, -32.539085300000011 ], [ -58.237402, -32.5394152 ], [ -58.237102100000016, -32.53983519999997 ], [ -58.236832099999958, -32.540105199999914 ], [ -58.23635209999992, -32.540585099999987 ], [ -58.236022199999979, -32.540855099999987 ], [ -58.2354522, -32.5410051 ], [ -58.2348523, -32.541155099999912 ], [ -58.2344923, -32.541125099999988 ], [ -58.2338024, -32.540975099999969 ], [ -58.233412399999963, -32.540705099999968 ], [ -58.233142499999929, -32.54049509999993 ], [ -58.232902499999966, -32.540285199999971 ], [ -58.232299, -32.540064899999948 ], [ -58.23189960000002, -32.539680899999951 ], [ -58.231531, -32.539327699999944 ], [ -58.231116399999962, -32.539051200000017 ], [ -58.230701699999941, -32.538820799999939 ], [ -58.23017950000002, -32.539051200000017 ], [ -58.229810899999961, -32.5393891 ], [ -58.2295805, -32.5397423 ], [ -58.229365499999972, -32.539972699999964 ], [ -58.2292273, -32.539988100000016 ], [ -58.229073700000015, -32.539819099999931 ], [ -58.229058299999963, -32.539419800000019 ], [ -58.2292119, -32.539051200000017 ], [ -58.229104399999983, -32.538820799999939 ], [ -58.228858699999989, -32.53851370000001 ], [ -58.228397899999948, -32.537868600000024 ], [ -58.228290399999935, -32.537546099999986 ], [ -58.22836719999998, -32.537223499999925 ], [ -58.228490099999931, -32.536916399999939 ], [ -58.229073700000015, -32.536041 ], [ -58.229426900000021, -32.534981199999947 ], [ -58.229688, -32.534397599999977 ], [ -58.229718699999978, -32.534044399999971 ], [ -58.229641899999933, -32.53343 ], [ -58.230056599999955, -32.532831 ], [ -58.230947399999934, -32.5322013 ], [ -58.231316, -32.531863499999929 ], [ -58.231853599999965, -32.531233799999939 ], [ -58.23219139999992, -32.5308498 ], [ -58.232329699999923, -32.530266200000028 ], [ -58.232452499999965, -32.529805399999987 ], [ -58.232467900000017, -32.5294983 ], [ -58.232775100000026, -32.529052900000011 ], [ -58.232744299999922, -32.528699599999982 ], [ -58.233036200000015, -32.528300300000012 ], [ -58.233036200000015, -32.527993099999946 ], [ -58.233159, -32.5276245 ], [ -58.233788699999934, -32.527087 ], [ -58.234310899999969, -32.526549499999987 ], [ -58.234602699999982, -32.526303699999971 ], [ -58.234879200000023, -32.52602730000001 ], [ -58.235124900000017, -32.525766200000021 ], [ -58.235155599999985, -32.52548969999998 ], [ -58.235124900000017, -32.525228599999934 ], [ -58.23477170000001, -32.524814 ], [ -58.2345259, -32.524522100000013 ], [ -58.234495199999969, -32.524276400000019 ], [ -58.234449099999949, -32.523738899999955 ], [ -58.234326300000021, -32.523216699999921 ], [ -58.2340805, -32.523109200000022 ], [ -58.233973, -32.522740599999963 ], [ -58.233957699999962, -32.522525500000029 ], [ -58.23369660000003, -32.52206480000001 ], [ -58.233312599999977, -32.5213276 ], [ -58.2331744, -32.520882200000017 ], [ -58.233097599999951, -32.520513600000015 ], [ -58.2329133, -32.5202218 ], [ -58.2328058, -32.519684200000029 ], [ -58.23252930000001, -32.519423099999983 ], [ -58.232283600000017, -32.518962399999964 ], [ -58.232222200000024, -32.518593799999962 ], [ -58.232160699999952, -32.518271299999924 ], [ -58.232160699999952, -32.517580100000032 ], [ -58.2323604, -32.516750799999954 ], [ -58.2324218, -32.516044299999976 ], [ -58.23256, -32.515737100000024 ], [ -58.232836500000019, -32.5153532 ], [ -58.232928599999923, -32.514861699999983 ], [ -58.233205099999964, -32.5145852 ], [ -58.233312599999977, -32.514201299999968 ], [ -58.233328, -32.513894100000016 ], [ -58.233619799999985, -32.513402599999949 ], [ -58.233896199999947, -32.513080100000025 ], [ -58.2342802, -32.512711499999966 ], [ -58.234341599999937, -32.512281499999915 ], [ -58.234372300000018, -32.511943599999938 ], [ -58.2341573, -32.511621100000013 ], [ -58.23340479999996, -32.511267799999985 ] ], [ [ -58.223046699999941, -32.520793700000013 ], [ -58.2212303, -32.5238326 ], [ -58.21634, -32.528478399999983 ], [ -58.213720200000012, -32.532705 ], [ -58.211973699999987, -32.536163099999953 ], [ -58.208410799999967, -32.542555399999969 ], [ -58.204323899999963, -32.546013500000015 ], [ -58.201704100000029, -32.547899799999925 ], [ -58.200062399999979, -32.550135399999988 ], [ -58.199293899999986, -32.554711299999951 ], [ -58.2003418, -32.559217299999943 ], [ -58.202297900000019, -32.56155769999998 ], [ -58.205965600000013, -32.565609600000016 ] ], [ [ -58.241911299999913, -32.5121454 ], [ -58.242291699999953, -32.511765 ], [ -58.242122600000016, -32.5111733 ], [ -58.241911299999913, -32.510581599999966 ], [ -58.241615399999944, -32.510243499999945 ], [ -58.241446399999916, -32.509356 ], [ -58.241234099999929, -32.5095374 ], [ -58.240998699999977, -32.509662100000014 ], [ -58.240887899999962, -32.5097867 ], [ -58.240624699999955, -32.5099252 ], [ -58.240375500000027, -32.509662100000014 ], [ -58.240084599999932, -32.50941279999995 ], [ -58.240070799999955, -32.5091081 ], [ -58.239904599999988, -32.508914199999936 ], [ -58.239683, -32.508817299999976 ], [ -58.239835299999925, -32.508554099999969 ], [ -58.24014, -32.508443299999954 ], [ -58.239987700000029, -32.508235599999921 ], [ -58.239683, -32.508069400000011 ], [ -58.239212100000032, -32.5075847 ] ], [ [ -58.23340479999996, -32.511267799999985 ], [ -58.232338200000015, -32.51352810000003 ], [ -58.229858199999967, -32.517160899999965 ], [ -58.2287753, -32.5181389 ], [ -58.225247299999921, -32.519675899999982 ], [ -58.223046699999941, -32.520793700000013 ] ], [ [ -58.233410699999922, -32.510106599999915 ], [ -58.23340479999996, -32.511267799999985 ] ], [ [ -58.239212100000032, -32.5075847 ], [ -58.2370664, -32.509414499999934 ], [ -58.236627699999985, -32.509677699999941 ], [ -58.235058199999969, -32.5100969 ], [ -58.233410699999922, -32.510106599999915 ] ], [ [ -58.230414699999926, -32.506365500000015 ], [ -58.233410699999922, -32.510106599999915 ] ], [ [ -58.324614600000018, -32.506023 ], [ -58.324263299999984, -32.5062337 ], [ -58.323865300000023, -32.506936199999984 ], [ -58.3233735, -32.507591799999943 ], [ -58.323303299999964, -32.508130400000027 ], [ -58.322928599999955, -32.508505 ], [ -58.322507200000018, -32.508809399999961 ], [ -58.3220154, -32.508926499999973 ], [ -58.321242699999914, -32.508809399999961 ], [ -58.32079779999998, -32.5084114 ], [ -58.32025920000001, -32.508107 ], [ -58.3197207, -32.507779200000016 ], [ -58.319275800000014, -32.507521600000018 ], [ -58.3179879, -32.506889399999977 ], [ -58.317379099999982, -32.506444499999986 ], [ -58.3167469, -32.5062337 ], [ -58.316114700000014, -32.5059761 ], [ -58.315810299999953, -32.505578099999923 ], [ -58.31499070000001, -32.505554699999948 ], [ -58.314311700000019, -32.505624899999987 ], [ -58.313866799999971, -32.506046399999946 ], [ -58.31370279999993, -32.5064913 ], [ -58.3135155, -32.506702 ], [ -58.313960399999928, -32.5072874 ], [ -58.31397149999998, -32.507692799999973 ], [ -58.313732800000025, -32.507995100000016 ], [ -58.313351, -32.508456499999966 ], [ -58.3124282, -32.508138299999928 ], [ -58.311919099999955, -32.5083929 ], [ -58.311394, -32.508838399999945 ], [ -58.311107599999957, -32.509124799999938 ], [ -58.310598499999912, -32.5093316 ], [ -58.310121199999969, -32.5090452 ], [ -58.30962790000001, -32.508711100000028 ], [ -58.309230199999945, -32.508377 ], [ -58.308561899999916, -32.508202 ], [ -58.308275599999945, -32.507931499999984 ], [ -58.307686900000022, -32.507788300000016 ], [ -58.3072414, -32.507565600000021 ], [ -58.306668600000023, -32.507390499999985 ], [ -58.306302699999947, -32.507199599999979 ], [ -58.3059685, -32.5068655 ], [ -58.305507099999943, -32.50637230000001 ], [ -58.3050935, -32.506451799999923 ], [ -58.304504799999961, -32.506483600000024 ], [ -58.304059299999949, -32.5066746 ], [ -58.303582, -32.5066587 ], [ -58.303343299999938, -32.506706399999985 ], [ -58.302945599999987, -32.506785899999954 ], [ -58.302627399999949, -32.506897299999935 ], [ -58.30235689999995, -32.5073587 ], [ -58.3020029, -32.507661799999937 ], [ -58.301597500000014, -32.508046900000011 ], [ -58.301151599999969, -32.508168599999976 ], [ -58.3006246, -32.507905 ], [ -58.300381300000026, -32.50751989999992 ], [ -58.300198899999941, -32.507337499999949 ], [ -58.299813799999981, -32.507479399999966 ], [ -58.299367800000027, -32.507438799999989 ], [ -58.29882049999992, -32.507296899999972 ], [ -58.298415099999943, -32.5071145 ], [ -58.297928599999921, -32.5072361 ], [ -58.297442100000012, -32.50751989999992 ], [ -58.296915099999921, -32.507864499999926 ], [ -58.29657050000003, -32.508046900000011 ], [ -58.296104299999968, -32.507864499999926 ], [ -58.295861100000025, -32.508067200000028 ], [ -58.295212399999912, -32.508046900000011 ], [ -58.294969199999969, -32.507925300000011 ], [ -58.294298200000014, -32.5078886 ], [ -58.2935665, -32.507996199999923 ], [ -58.292877799999928, -32.508103800000015 ], [ -58.2924044, -32.507630399999925 ], [ -58.292124600000022, -32.507199899999932 ], [ -58.2919094, -32.5065543 ], [ -58.291672699999936, -32.506231500000013 ], [ -58.291715699999941, -32.505564399999969 ], [ -58.290768800000023, -32.504918799999928 ], [ -58.290187800000012, -32.505090900000027 ], [ -58.289628199999981, -32.505736500000012 ], [ -58.289305399999932, -32.506296099999929 ], [ -58.288810500000011, -32.506748 ], [ -58.288395, -32.5070556 ], [ -58.2878, -32.506889 ], [ -58.287633399999947, -32.5065558 ], [ -58.287252599999988, -32.506008399999928 ], [ -58.286919399999931, -32.505865599999936 ], [ -58.28634820000002, -32.5062464 ], [ -58.285896, -32.506341599999985 ], [ -58.284920199999988, -32.5060798 ], [ -58.284372800000028, -32.50681759999992 ], [ -58.283325599999955, -32.507008 ], [ -58.282635399999947, -32.5070318 ], [ -58.281707199999971, -32.507150799999977 ], [ -58.2811122, -32.507412599999952 ], [ -58.280422, -32.507127 ], [ -58.279660400000012, -32.506841399999928 ], [ -58.27885120000002, -32.50660339999996 ], [ -58.2781134, -32.5063654 ], [ -58.276637799999946, -32.506746199999952 ], [ -58.276019, -32.5070556 ], [ -58.275305, -32.507341199999985 ], [ -58.274852799999962, -32.507507799999985 ], [ -58.274329199999954, -32.507341199999985 ], [ -58.273829400000011, -32.5070794 ], [ -58.27342479999993, -32.5070318 ], [ -58.273163, -32.507341199999985 ], [ -58.2729018, -32.507328299999983 ], [ -58.272511899999984, -32.507133300000021 ], [ -58.272238899999934, -32.5069871 ], [ -58.2719464, -32.507006600000011 ], [ -58.2715662, -32.507328299999983 ], [ -58.270084499999939, -32.5088783 ], [ -58.268524699999944, -32.508264199999985 ], [ -58.266555499999981, -32.507620799999927 ], [ -58.265775599999927, -32.506597199999987 ], [ -58.265453899999955, -32.503516600000012 ], [ -58.265025, -32.502883 ], [ -58.263806499999987, -32.502805 ], [ -58.263007099999925, -32.503555600000027 ], [ -58.261954199999934, -32.503331399999979 ], [ -58.2617593, -32.5023956 ], [ -58.261076899999921, -32.502044599999977 ], [ -58.2597121, -32.501937399999974 ], [ -58.2576942, -32.501869100000022 ], [ -58.255968699999983, -32.501333 ], [ -58.254730600000016, -32.500718799999959 ], [ -58.254106700000023, -32.500806599999976 ], [ -58.2538922, -32.501830199999915 ], [ -58.25379479999998, -32.502844 ], [ -58.253395099999921, -32.50306820000003 ], [ -58.2522935, -32.503087699999924 ], [ -58.250509500000021, -32.502200599999981 ], [ -58.249612699999943, -32.501791199999957 ], [ -58.245625500000017, -32.5009528 ], [ -58.243978, -32.500757799999974 ], [ -58.243627100000026, -32.501245199999914 ], [ -58.242720500000019, -32.5048132 ], [ -58.2413947, -32.505944 ], [ -58.239922699999966, -32.506821399999978 ], [ -58.239212100000032, -32.5075847 ] ], [ [ -58.238891, -32.491713 ], [ -58.238851, -32.49178 ], [ -58.238214, -32.492408 ], [ -58.237705, -32.49281 ], [ -58.237276, -32.493132 ], [ -58.236878, -32.49357 ], [ -58.235966, -32.49443 ], [ -58.235445, -32.494953 ], [ -58.234989, -32.495302 ], [ -58.234973, -32.495881 ], [ -58.234686, -32.496396 ], [ -58.234264, -32.49703 ], [ -58.233695, -32.497513 ], [ -58.233453, -32.497685 ], [ -58.232824, -32.498409 ], [ -58.232465, -32.499528 ], [ -58.232327, -32.5001 ], [ -58.232448, -32.500453 ], [ -58.232112, -32.50072 ], [ -58.232062, -32.501173 ], [ -58.232096, -32.501446 ], [ -58.231775, -32.501922 ], [ -58.231681, -32.50245 ], [ -58.231535, -32.503178 ], [ -58.231428, -32.503647 ], [ -58.231232, -32.504546 ], [ -58.231024, -32.505453 ], [ -58.230414699999926, -32.506365500000015 ] ], [ [ -58.219379, -32.479016699999931 ], [ -58.220776199999932, -32.482963799999936 ], [ -58.221055599999943, -32.486422 ], [ -58.222557699999982, -32.491661599999929 ], [ -58.224234299999978, -32.494281299999955 ], [ -58.225247299999921, -32.497040899999945 ], [ -58.229928, -32.505773499999975 ], [ -58.230414699999926, -32.506365500000015 ] ], [ [ -58.206769, -32.470284 ], [ -58.212113400000021, -32.473707199999922 ], [ -58.215920900000015, -32.476047599999958 ], [ -58.219379, -32.479016699999931 ] ], [ [ -58.206769, -32.470284 ], [ -58.208929500000011, -32.478530499999977 ], [ -58.211326, -32.4866786 ], [ -58.214105899999936, -32.4938682 ], [ -58.217365199999961, -32.498373599999979 ], [ -58.222829199999978, -32.504604500000028 ], [ -58.2235961, -32.511889900000028 ], [ -58.223046699999941, -32.520793700000013 ] ], [ [ -58.197495300000014, -32.466952299999946 ], [ -58.206769, -32.470284 ] ], [ [ -58.197495300000014, -32.466952299999946 ], [ -58.192688699999962, -32.411320100000012 ], [ -58.190628799999956, -32.3895794 ], [ -58.176895899999977, -32.368413499999974 ], [ -58.162133, -32.358843700000023 ], [ -58.120934299999988, -32.338250699999946 ], [ -58.102394899999922, -32.298791899999969 ], [ -58.101708199999962, -32.272089400000027 ], [ -58.101364899999965, -32.242475299999967 ], [ -58.121277599999985, -32.229407199999969 ], [ -58.1556099, -32.1864144 ], [ -58.175865900000019, -32.166944699999931 ], [ -58.1796425, -32.143401199999971 ], [ -58.158699800000022, -32.071861499999955 ], [ -58.149773400000015, -31.988327699999957 ], [ -58.168312799999967, -31.929488199999923 ], [ -58.197151899999938, -31.899762899999985 ], [ -58.201271799999972, -31.878191399999935 ], [ -58.1779259, -31.8481579 ], [ -58.150803399999972, -31.832408199999918 ], [ -58.0763023, -31.8224904 ], [ -58.0481499, -31.762377300000026 ], [ -57.9997414, -31.639403199999947 ], [ -57.979828599999962, -31.5897 ], [ -57.987038400000017, -31.568056299999967 ], [ -58.004547899999977, -31.533532799999932 ], [ -58.033996799999954, -31.511398699999916 ] ], [ [ -58.231181899999967, -32.457066600000019 ], [ -58.229901899999959, -32.458869399999969 ], [ -58.2287301, -32.461105 ], [ -58.226747, -32.46325029999997 ], [ -58.226620799999978, -32.464350099999933 ], [ -58.227540200000021, -32.465828399999964 ], [ -58.228153199999952, -32.466874 ], [ -58.228153199999952, -32.467613200000017 ], [ -58.2281352, -32.468478600000026 ], [ -58.2279909, -32.469055499999968 ], [ -58.227215699999988, -32.469506199999955 ], [ -58.225142399999982, -32.470461699999987 ], [ -58.223736199999962, -32.471831800000018 ], [ -58.221879300000012, -32.473778900000013 ], [ -58.220383, -32.474968799999942 ], [ -58.219379, -32.479016699999931 ] ], [ [ -58.2520222, -32.455057499999953 ], [ -58.2516483, -32.455898699999921 ], [ -58.251003799999978, -32.456250800000021 ], [ -58.250206299999945, -32.456585799999971 ], [ -58.2496799, -32.456761200000017 ], [ -58.249265199999968, -32.45680909999993 ], [ -58.248531500000013, -32.457064300000013 ], [ -58.24802109999996, -32.457287599999916 ], [ -58.247526699999923, -32.4573992 ], [ -58.246888599999977, -32.45716 ], [ -58.245899699999939, -32.456426299999976 ], [ -58.245229799999947, -32.4558202 ], [ -58.244783200000029, -32.455580899999916 ], [ -58.244416299999955, -32.455469199999925 ], [ -58.243778300000031, -32.455724499999917 ], [ -58.2433636, -32.4559956 ], [ -58.2427894, -32.456139199999939 ], [ -58.241991900000016, -32.456075399999975 ], [ -58.241481499999963, -32.455899899999963 ], [ -58.2408754, -32.455389500000024 ], [ -58.240476599999965, -32.455102399999987 ], [ -58.239902399999949, -32.454958799999986 ], [ -58.2391687, -32.454926899999919 ], [ -58.238578500000017, -32.455102399999987 ], [ -58.23803620000001, -32.455564899999956 ], [ -58.2375098, -32.455899899999963 ], [ -58.236871800000017, -32.456011599999954 ], [ -58.236042399999974, -32.456043500000021 ], [ -58.235324600000013, -32.4559956 ], [ -58.2347504, -32.456011599999954 ], [ -58.2342241, -32.456250800000021 ], [ -58.233554200000015, -32.456713400000012 ], [ -58.2331873, -32.4572238 ], [ -58.2328842, -32.45763850000003 ], [ -58.232756599999959, -32.458021299999984 ], [ -58.232629, -32.458499800000027 ], [ -58.2323738, -32.4585636 ], [ -58.23203890000002, -32.45846789999996 ], [ -58.231847500000015, -32.458069200000011 ], [ -58.2318156, -32.457574699999952 ], [ -58.231181899999967, -32.457066600000019 ] ], [ [ -58.23193909999992, -32.451622 ], [ -58.231560499999944, -32.4530643 ], [ -58.231470399999978, -32.4539297 ], [ -58.231181899999967, -32.457066600000019 ] ], [ [ -58.235436599999957, -32.447169 ], [ -58.235664399999962, -32.4472945 ], [ -58.2359578, -32.447173699999951 ], [ -58.236285699999939, -32.447311800000023 ], [ -58.236682700000017, -32.447657 ], [ -58.236958800000025, -32.4481748 ], [ -58.237062400000013, -32.4488134 ], [ -58.236958800000025, -32.4492621 ], [ -58.23682070000001, -32.449797199999921 ], [ -58.236320199999966, -32.4501942 ], [ -58.235888699999975, -32.450504799999976 ], [ -58.235664399999962, -32.45055659999997 ], [ -58.235301900000024, -32.450418500000012 ], [ -58.2349049, -32.450504799999976 ], [ -58.234059199999933, -32.451022599999988 ], [ -58.233179, -32.451592199999936 ], [ -58.232747500000016, -32.4516612 ], [ -58.23193909999992, -32.451622 ] ], [ [ -58.235436599999957, -32.447169 ], [ -58.235076099999958, -32.44754759999995 ], [ -58.234354899999971, -32.447745899999973 ], [ -58.233183100000019, -32.448575300000016 ], [ -58.23266030000002, -32.449981499999922 ], [ -58.23193909999992, -32.451622 ] ], [ [ -58.289804699999934, -32.4239695 ], [ -58.289036499999952, -32.4227692 ], [ -58.288604500000019, -32.422145100000023 ], [ -58.2877403, -32.421473 ], [ -58.286251899999968, -32.420560799999976 ], [ -58.2855318, -32.4196485 ], [ -58.284763600000019, -32.418640299999936 ], [ -58.28418750000003, -32.417104 ], [ -58.2834193, -32.4159517 ], [ -58.2828912, -32.4148475 ], [ -58.281979, -32.414031299999976 ], [ -58.280682099999979, -32.414027499999918 ], [ -58.279350299999919, -32.414295900000013 ], [ -58.278799799999945, -32.414623899999981 ], [ -58.27811829999996, -32.414879400000018 ], [ -58.2773942, -32.4154332 ], [ -58.276414599999953, -32.416029499999922 ], [ -58.275094099999933, -32.416412799999932 ], [ -58.273986699999966, -32.416199800000015 ], [ -58.271942200000012, -32.4156461 ], [ -58.270664399999987, -32.4152628 ], [ -58.2695569, -32.414666499999953 ], [ -58.268875400000013, -32.414070199999912 ], [ -58.268449499999974, -32.412920099999951 ], [ -58.268151299999943, -32.412196 ], [ -58.267555, -32.411684900000012 ], [ -58.266873499999917, -32.411727499999984 ], [ -58.266405, -32.412494199999969 ], [ -58.2665328, -32.413601599999936 ], [ -58.2665328, -32.414879400000018 ], [ -58.265766099999951, -32.416455400000018 ], [ -58.265851199999986, -32.417009099999973 ], [ -58.265510499999948, -32.417520299999921 ], [ -58.264829, -32.417690599999958 ], [ -58.263721499999974, -32.4169665 ], [ -58.262954899999954, -32.416242399999987 ], [ -58.2621456, -32.4158165 ], [ -58.261251099999981, -32.415688699999976 ], [ -58.260228799999936, -32.4160721 ], [ -58.260271399999965, -32.416881399999966 ], [ -58.2609529, -32.418074 ], [ -58.2606548, -32.418840699999919 ], [ -58.260015899999985, -32.419862899999941 ], [ -58.259291800000028, -32.420587 ], [ -58.258695499999988, -32.420587 ], [ -58.258269499999983, -32.420331499999975 ], [ -58.257204699999988, -32.419692599999962 ], [ -58.2565232, -32.41965 ], [ -58.256225, -32.420118499999944 ], [ -58.256608399999948, -32.420714799999985 ], [ -58.256778699999927, -32.421438899999941 ], [ -58.256736099999955, -32.422418600000015 ], [ -58.256608399999948, -32.423739 ], [ -58.2558843, -32.4243353 ], [ -58.254180499999961, -32.423653800000011 ], [ -58.2529879, -32.422929699999941 ], [ -58.25171, -32.422248199999956 ], [ -58.250517399999922, -32.421694499999944 ], [ -58.24941, -32.421566699999971 ], [ -58.249154399999952, -32.422163 ], [ -58.249282199999982, -32.422716699999967 ], [ -58.2496655, -32.423355599999923 ], [ -58.249963700000023, -32.424761199999978 ], [ -58.249480699999935, -32.426129899999978 ], [ -58.248435099999938, -32.4275902 ], [ -58.2470108, -32.428996400000017 ], [ -58.245694799999967, -32.429988 ], [ -58.2446311, -32.430384600000025 ], [ -58.243567400000018, -32.429988 ], [ -58.243062599999973, -32.429573399999924 ], [ -58.24290039999994, -32.4287981 ], [ -58.243351099999927, -32.4282212 ], [ -58.243531399999938, -32.42741 ], [ -58.2428643, -32.427031399999919 ], [ -58.241710500000011, -32.427085399999953 ], [ -58.240358399999934, -32.428022899999917 ], [ -58.2405928, -32.428762099999972 ], [ -58.241043499999989, -32.4297176 ], [ -58.241386, -32.430835300000012 ], [ -58.241548299999977, -32.431863 ], [ -58.240863199999978, -32.432872499999974 ], [ -58.237023099999931, -32.43626189999992 ], [ -58.235635, -32.438569499999915 ], [ -58.235526799999946, -32.439434899999924 ], [ -58.234354899999971, -32.44186869999993 ], [ -58.233705900000018, -32.4438518 ], [ -58.234048499999915, -32.4449515 ], [ -58.2348417, -32.445997200000022 ], [ -58.235382599999923, -32.446862600000031 ], [ -58.235436599999957, -32.447169 ] ], [ [ -58.033996799999954, -31.511398699999916 ], [ -58.036476899999968, -31.5095344 ], [ -58.0766456, -31.492849 ], [ -58.08351209999995, -31.4682545 ], [ -58.070809199999985, -31.445996700000023 ], [ -58.055359599999974, -31.43633049999994 ], [ -57.990128299999981, -31.398828 ], [ -57.978112, -31.3830021 ], [ -57.992188299999953, -31.360724199999936 ], [ -57.980172, -31.317912200000023 ], [ -57.968499, -31.308526200000017 ], [ -57.925583599999982, -31.260114499999929 ], [ -57.914254, -31.210797099999922 ], [ -57.915970599999923, -31.1338341 ], [ -57.883698299999935, -31.0965051 ], [ -57.8624122, -31.037101300000018 ], [ -57.891938, -30.979426399999966 ], [ -57.907387500000027, -30.9399755 ], [ -57.8212135, -30.91994950000003 ], [ -57.804734, -30.882242 ], [ -57.804734, -30.7719803 ], [ -57.814690400000018, -30.68492 ], [ -57.834259799999984, -30.661296900000025 ], [ -57.8613823, -30.604577800000015 ], [ -57.8857582, -30.586846299999934 ], [ -57.885414899999944, -30.547529899999915 ], [ -57.874085200000025, -30.508493299999941 ], [ -57.847306, -30.474767299999939 ], [ -57.781044800000018, -30.435997499999928 ], [ -57.7614754, -30.417939099999955 ], [ -57.656418599999938, -30.357819199999938 ], [ -57.632386, -30.311000799999988 ], [ -57.6155632, -30.248739100000023 ], [ -57.644059, -30.2158134 ], [ -57.648522199999945, -30.1822831 ], [ -57.629296099999976, -30.1748634 ], [ -57.5990837, -30.178721699999983 ], [ -57.533165699999927, -30.15646 ], [ -57.511536400000011, -30.142506799999921 ], [ -57.457634699999971, -30.105981499999928 ], [ -57.447678399999972, -30.0747907 ], [ -57.405793, -30.028729199999987 ], [ -57.354294599999946, -30.0088121 ], [ -57.325798799999973, -29.9674789 ], [ -57.326485400000024, -29.907976299999973 ], [ -57.325455499999975, -29.874937100000011 ], [ -57.278076899999917, -29.81776229999997 ], [ -57.243401300000016, -29.7900565 ], [ -57.219712099999924, -29.777243599999963 ], [ -57.17267679999992, -29.783203300000025 ], [ -57.115685299999939, -29.7644292 ], [ -57.050110599999982, -29.705998399999942 ], [ -57.024704700000029, -29.6878064 ], [ -57.013375100000019, -29.669312699999978 ], [ -57.006165299999964, -29.655887799999959 ], [ -56.988999200000023, -29.646936799999935 ], [ -56.9711464, -29.64425140000003 ], [ -56.96668319999992, -29.632016799999917 ], [ -56.973549599999956, -29.6075432 ], [ -56.882912399999952, -29.518253699999946 ], [ -56.8231743, -29.493752499999971 ], [ -56.8070381, -29.4728321 ], [ -56.80429149999992, -29.4560927 ], [ -56.777855700000032, -29.436958600000025 ], [ -56.7740791, -29.390005 ], [ -56.7479866, -29.368464800000027 ], [ -56.7109077, -29.368165599999941 ], [ -56.647736299999963, -29.26458939999992 ], [ -56.651856199999941, -29.224747499999978 ], [ -56.6443031, -29.1950807 ], [ -56.6024177, -29.157010599999978 ], [ -56.591774699999917, -29.124025199999949 ], [ -56.5722053, -29.1141275 ], [ -56.547829400000012, -29.117126900000017 ], [ -56.535813099999984, -29.111727899999948 ], [ -56.515557099999967, -29.096429199999989 ], [ -56.4966743, -29.0895291 ], [ -56.420456699999988, -29.0784279 ], [ -56.4060371, -29.036712699999953 ], [ -56.3974541, -29.0175 ], [ -56.415306799999939, -29.003388399999949 ], [ -56.414963499999942, -28.9889746 ], [ -56.404320499999983, -28.972155900000018 ], [ -56.3833778, -28.9505279 ], [ -56.3353126, -28.9373086 ], [ -56.31128, -28.912067 ], [ -56.299950399999943, -28.8961375 ], [ -56.295487200000025, -28.853446699999949 ], [ -56.302697, -28.814047299999913 ], [ -56.289650699999925, -28.795996800000012 ], [ -56.267678100000012, -28.78155419999996 ], [ -56.236435699999959, -28.777040399999976 ], [ -56.205193300000019, -28.774633 ], [ -56.171891, -28.755672800000013 ], [ -56.1464851, -28.7144298 ], [ -56.126229099999989, -28.687025899999924 ], [ -56.100136599999985, -28.6686522 ], [ -56.059967799999981, -28.633703200000014 ], [ -56.035248599999989, -28.620745 ], [ -56.009842699999979, -28.607182399999942 ], [ -56.000573, -28.5845741 ], [ -56.022374, -28.553517599999964 ], [ -56.027523799999983, -28.534969699999976 ], [ -56.022030599999937, -28.521396 ], [ -56.01104429999998, -28.507971399999974 ], [ -55.988213299999927, -28.498316699999975 ], [ -55.947014599999989, -28.49560120000001 ], [ -55.914398899999981, -28.482776899999919 ], [ -55.885731499999963, -28.481117199999915 ], [ -55.880925, -28.470554600000014 ], [ -55.8838432, -28.460745599999939 ], [ -55.8974045, -28.426482299999975 ], [ -55.904442599999982, -28.41093189999998 ], [ -55.8982628, -28.394473099999971 ], [ -55.880238299999974, -28.36668370000001 ], [ -55.8747452, -28.3589799 ], [ -55.849854299999947, -28.3558076 ], [ -55.8168953, -28.365777399999956 ], [ -55.765740199999925, -28.368949399999963 ], [ -55.760933699999953, -28.3687984 ], [ -55.7422226, -28.3754442 ], [ -55.728146399999957, -28.391754899999967 ], [ -55.71716, -28.423614 ], [ -55.701882199999943, -28.428444800000022 ], [ -55.690380800000014, -28.415461400000027 ], [ -55.691410799999971, -28.3968893 ], [ -55.68162609999996, -28.372272399999929 ], [ -55.667893199999924, -28.337829399999919 ], [ -55.687805899999944, -28.317128099999934 ], [ -55.706002, -28.309269500000028 ], [ -55.723683199999982, -28.293701899999917 ], [ -55.741707599999984, -28.282516 ], [ -55.770203400000014, -28.2761668 ], [ -55.783593, -28.258477499999969 ], [ -55.7784431, -28.246683 ], [ -55.731407900000022, -28.228686400000015 ], [ -55.698448900000017, -28.222333900000024 ], [ -55.66446, -28.193894300000011 ], [ -55.65587690000001, -28.1849676 ], [ -55.635105899999985, -28.178763799999956 ], [ -55.626694499999985, -28.172408300000029 ], [ -55.620171299999981, -28.15076670000002 ], [ -55.621029699999951, -28.1342677 ], [ -55.614849799999945, -28.1209455 ], [ -55.60540850000001, -28.115797900000018 ], [ -55.5939072, -28.116403499999933 ], [ -55.584980799999926, -28.120794099999955 ], [ -55.585495700000024, -28.130180399999972 ], [ -55.5896156, -28.14335 ], [ -55.58463740000002, -28.151523499999939 ], [ -55.566613, -28.1615124 ], [ -55.562836399999924, -28.165295800000024 ], [ -55.5556267, -28.164539199999979 ], [ -55.546185299999934, -28.151674800000023 ], [ -55.5394905, -28.1244276 ], [ -55.526787599999921, -28.115495099999919 ], [ -55.517517799999951, -28.115646500000025 ], [ -55.50876310000001, -28.110498599999971 ], [ -55.50052340000002, -28.081272 ], [ -55.49194030000001, -28.077788600000019 ], [ -55.47786409999992, -28.082332199999939 ], [ -55.462929499999973, -28.096416299999987 ], [ -55.44988330000001, -28.1002021 ], [ -55.442845099999943, -28.09369049999998 ], [ -55.4193275, -28.059612 ], [ -55.373150599999974, -28.0340081 ], [ -55.3690307, -28.016885 ], [ -55.3755539, -28.006731099999968 ], [ -55.38688350000001, -27.9832369 ], [ -55.362850900000012, -27.972776599999975 ], [ -55.340878299999986, -27.970350899999971 ], [ -55.340118599999926, -27.9669217 ], [ -55.3362434, -27.949426699999947 ], [ -55.3268021, -27.92774019999996 ], [ -55.307576, -27.922431599999925 ], [ -55.2921265, -27.92895349999992 ], [ -55.255562600000019, -27.916971099999955 ], [ -55.240113099999974, -27.896491699999956 ], [ -55.227066799999989, -27.8781328 ], [ -55.200287600000024, -27.858405 ], [ -55.1702469, -27.862502599999914 ], [ -55.152050799999927, -27.884354 ], [ -55.13763119999993, -27.896946899999932 ], [ -55.126301599999977, -27.891788500000018 ], [ -55.124584899999945, -27.876767199999961 ], [ -55.127846499999919, -27.8603779 ], [ -55.1221817, -27.855976699999985 ], [ -55.102269, -27.846566499999938 ], [ -55.054203799999925, -27.85810140000001 ], [ -55.045620699999972, -27.856280199999958 ], [ -55.033604399999945, -27.8579497 ], [ -55.0245064, -27.846263 ], [ -55.025536299999942, -27.832753399999945 ], [ -55.043389099999956, -27.821974800000021 ], [ -55.076004799999964, -27.801477499999976 ], [ -55.085617799999966, -27.795859099999973 ], [ -55.081083199999966, -27.778221899999949 ], [ -55.057637, -27.76837 ], [ -55.052701500000012, -27.771386399999983 ], [ -55.04098590000001, -27.77854629999996 ], [ -55.02690960000001, -27.7946442 ], [ -55.016953300000011, -27.797985 ], [ -55.001675400000011, -27.7960109 ], [ -54.993779, -27.77505309999998 ], [ -54.977814500000022, -27.772319099999947 ], [ -54.957043399999918, -27.779457599999944 ], [ -54.938160699999969, -27.7745974 ], [ -54.930264299999976, -27.759559899999942 ], [ -54.9173897, -27.738443 ], [ -54.90289869999998, -27.72262 ], [ -54.9026268, -27.6922452 ], [ -54.907605, -27.6446593 ], [ -54.8991936, -27.631885099999977 ], [ -54.878765900000019, -27.6256495 ], [ -54.858853099999976, -27.630212099999937 ], [ -54.8525017, -27.625497399999915 ], [ -54.841172, -27.609070299999928 ], [ -54.829327399999954, -27.564491700000019 ], [ -54.816624399999966, -27.5416629 ], [ -54.810959599999933, -27.5305512 ], [ -54.799801600000023, -27.5322256 ], [ -54.798646500000018, -27.536004900000023 ], [ -54.784867099999929, -27.581077699999923 ], [ -54.769589199999984, -27.586859399999923 ], [ -54.758259599999974, -27.580925499999921 ], [ -54.747959899999955, -27.564643899999965 ], [ -54.736801899999932, -27.561600299999952 ], [ -54.68393020000002, -27.575447899999972 ], [ -54.6741455, -27.571643799999947 ], [ -54.6724289, -27.561296 ], [ -54.68118359999994, -27.519742800000017 ], [ -54.677543899999989, -27.5072518 ], [ -54.677235399999972, -27.5061928 ], [ -54.668137300000012, -27.505736 ], [ -54.66144259999993, -27.509846900000014 ], [ -54.647709599999928, -27.5413585 ], [ -54.6399849, -27.545924699999944 ], [ -54.630371799999978, -27.5460769 ], [ -54.619385500000021, -27.539227599999947 ], [ -54.602391, -27.498275099999944 ], [ -54.596039599999983, -27.488225 ], [ -54.592434699999956, -27.473452699999939 ], [ -54.590822599999967, -27.4617035 ], [ -54.590031399999987, -27.4559365 ], [ -54.576813500000014, -27.453347 ], [ -54.558789100000013, -27.466446599999983 ], [ -54.543339499999945, -27.488072699999918 ], [ -54.537674700000025, -27.505279200000018 ], [ -54.5261734, -27.506801799999948 ], [ -54.5186203, -27.50040690000003 ], [ -54.512097199999914, -27.486854499999936 ], [ -54.501110799999935, -27.480610699999943 ], [ -54.461457, -27.480610699999943 ], [ -54.447037500000022, -27.472234300000025 ], [ -54.4430893, -27.466446599999983 ], [ -54.444290899999942, -27.4586784 ], [ -54.464032, -27.44618719999994 ], [ -54.471756700000014, -27.434761099999946 ], [ -54.4700401, -27.426686 ], [ -54.4599121, -27.42211489999994 ], [ -54.445320900000013, -27.425314699999944 ], [ -54.436051199999952, -27.425467 ], [ -54.4195717, -27.410381499999914 ], [ -54.409958599999982, -27.40687650000001 ], [ -54.39519580000001, -27.415562599999987 ], [ -54.3806045, -27.436284699999987 ], [ -54.3622368, -27.461572499999932 ], [ -54.349877199999924, -27.467512699999986 ], [ -54.340264100000013, -27.464009499999975 ], [ -54.334942599999977, -27.447405899999978 ], [ -54.339405799999952, -27.4353706 ], [ -54.343697300000031, -27.408552799999939 ], [ -54.33786090000001, -27.402914199999941 ], [ -54.326531199999977, -27.407333699999981 ], [ -54.3207248, -27.413022699999942 ], [ -54.303356899999926, -27.430038 ], [ -54.296490499999948, -27.443445100000019 ], [ -54.2872208, -27.4490816 ], [ -54.273316200000011, -27.442074 ], [ -54.268681300000026, -27.43674169999997 ], [ -54.269196299999919, -27.4080957 ], [ -54.262844799999925, -27.397580100000027 ], [ -54.246022, -27.392855399999917 ], [ -54.232460800000013, -27.3937699 ], [ -54.218212900000026, -27.38660619999996 ], [ -54.212376399999926, -27.373497199999974 ], [ -54.214093, -27.348646599999938 ], [ -54.1983002, -27.316622400000028 ], [ -54.1921203, -27.304725299999973 ], [ -54.193665300000021, -27.294199900000024 ], [ -54.189030399999979, -27.2729936 ], [ -54.186970499999973, -27.265059199999939 ], [ -54.178044100000022, -27.257734700000015 ], [ -54.168087800000023, -27.253919600000017 ], [ -54.163452899999925, -27.255598299999917 ], [ -54.155899799999986, -27.2664325 ], [ -54.155728099999919, -27.279706799999985 ], [ -54.159161400000016, -27.286572200000023 ], [ -54.159161400000016, -27.294505 ], [ -54.153668199999913, -27.297556 ], [ -54.113671099999976, -27.3032 ], [ -54.09393, -27.302894900000013 ], [ -54.07933879999996, -27.298471199999938 ], [ -54.070069100000012, -27.285351699999978 ], [ -54.053069099999959, -27.26146209999996 ], [ -54.037290399999961, -27.2585092 ], [ -54.036257, -27.2580299 ], [ -54.025093799999979, -27.2528514 ], [ -54.0178841, -27.2421685 ], [ -54.01496579999997, -27.227210599999978 ], [ -54.017025699999976, -27.215609299999926 ], [ -54.013557199999923, -27.205242699999985 ], [ -54.009129299999927, -27.199426499999959 ], [ -54.002004699999929, -27.196244200000024 ], [ -53.992649799999981, -27.195762100000024 ], [ -53.981663500000025, -27.19606749999997 ], [ -53.965870699999982, -27.199273799999958 ], [ -53.959004199999924, -27.192250299999955 ], [ -53.960720799999933, -27.164152 ], [ -53.959004199999924, -27.158042699999953 ], [ -53.950592799999924, -27.1517804 ], [ -53.943039699999929, -27.153002300000026 ], [ -53.9336444, -27.156656599999963 ], [ -53.932053399999972, -27.157279099999926 ], [ -53.919350399999985, -27.172551699999985 ], [ -53.910424, -27.176675 ], [ -53.900982699999986, -27.173468 ], [ -53.888623, -27.155751699999939 ], [ -53.886048099999925, -27.1355883 ], [ -53.876778399999978, -27.12764420000002 ], [ -53.864982600000019, -27.125750899999957 ], [ -53.843819400000029, -27.163693799999919 ], [ -53.8300865, -27.173468 ], [ -53.813263699999936, -27.175300599999957 ], [ -53.781684199999972, -27.15085659999994 ], [ -53.777306099999919, -27.148078 ], [ -53.769661699999972, -27.1493365 ], [ -53.765178499999934, -27.158502899999974 ], [ -53.753525499999967, -27.182325099999957 ], [ -53.749749, -27.191792299999918 ], [ -53.734642800000017, -27.191792299999918 ], [ -53.704773699999976, -27.172246299999927 ], [ -53.6783378, -27.162166500000012 ], [ -53.665291599999932, -27.163388399999974 ], [ -53.651215400000012, -27.179881799999976 ], [ -53.64881209999993, -27.2000372 ], [ -53.651215400000012, -27.214998700000024 ], [ -53.648125399999969, -27.220188899999982 ], [ -53.6350792, -27.218051799999955 ], [ -53.626152799999943, -27.201869299999942 ], [ -53.617913, -27.186906099999931 ], [ -53.607075800000018, -27.187019499999963 ], [ -53.594223799999952, -27.189654599999983 ], [ -53.571221099999946, -27.176522199999965 ], [ -53.5578408, -27.171665299999916 ], [ -53.524872599999981, -27.198815799999977 ], [ -53.498093399999959, -27.205838799999924 ], [ -53.488137, -27.199121100000013 ], [ -53.490540299999964, -27.178660200000024 ], [ -53.506676499999969, -27.160944700000016 ], [ -53.508049799999981, -27.1401712 ], [ -53.49328689999993, -27.133755099999917 ], [ -53.474060799999961, -27.139865699999973 ], [ -53.468911, -27.153002300000026 ], [ -53.457924599999956, -27.157279099999926 ], [ -53.431832099999951, -27.14811450000002 ], [ -53.415352599999949, -27.143531899999971 ], [ -53.402649699999984, -27.129783 ], [ -53.389260099999944, -27.103808300000026 ], [ -53.377587100000028, -27.0921942 ], [ -53.369004, -27.093111099999931 ], [ -53.353211199999919, -27.117560399999945 ], [ -53.34256819999996, -27.121838499999967 ], [ -53.3223122, -27.119393899999977 ], [ -53.30033949999995, -27.126421899999968 ], [ -53.295533, -27.1355883 ], [ -53.294173199999989, -27.146636099999967 ], [ -53.30927939999998, -27.183290399999976 ], [ -53.319235699999979, -27.1976434 ], [ -53.3223256, -27.213826499999982 ], [ -53.316145800000015, -27.219016799999963 ], [ -53.30584609999994, -27.21687959999997 ], [ -53.301726299999928, -27.201613 ], [ -53.260870899999986, -27.185428199999933 ], [ -53.239241499999935, -27.171684500000026 ], [ -53.227225200000021, -27.175960499999974 ], [ -53.196669499999928, -27.192146700000023 ] ], [ [ -57.878414299999974, -31.466510899999946 ], [ -57.878414299999974, -31.463582499999973 ], [ -57.876011, -31.461825499999975 ], [ -57.8763543, -31.457139699999971 ], [ -57.879100900000026, -31.4536253 ], [ -57.888027299999919, -31.453039499999988 ], [ -57.895237100000031, -31.459482599999944 ], [ -57.904163499999925, -31.459482599999944 ], [ -57.90794, -31.460361199999966 ], [ -57.917896400000018, -31.458896899999957 ], [ -57.920299600000021, -31.460068299999989 ], [ -57.925792799999954, -31.471489 ], [ -57.94501889999998, -31.465339599999936 ], [ -57.946392199999934, -31.462118299999986 ], [ -57.95669190000001, -31.459775499999921 ], [ -57.958408500000019, -31.46123979999993 ], [ -57.951885299999958, -31.470903399999941 ], [ -57.95325859999997, -31.4852505 ], [ -57.941929, -31.494618899999921 ], [ -57.931972599999938, -31.496668100000022 ], [ -57.935062499999958, -31.502230099999963 ], [ -57.962528300000031, -31.505157299999951 ], [ -57.977634499999965, -31.4843722 ], [ -57.99068079999995, -31.487885499999948 ], [ -58.019863199999975, -31.486714399999983 ], [ -58.0300451, -31.496127199999933 ], [ -58.033996799999954, -31.511398699999916 ] ] ] } }
]
}
